QIANFAN-33              
1 61566U 24185Q   25249.24174967  .00000487  00000+0  34349-3 0  9990
2 61566  88.9738  89.6915 0004807 272.5737  87.4890 13.96429088 55555
QIANFAN-34              
1 61567U 24185R   25249.24999246  .00000519  00000+0  33071-3 0  9993
2 61567  88.9716  89.3831 0003620 282.7959  77.2816 14.02181130 55698
QIANFAN-35              
1 61568U 24185S   25249.21504482  .00001183  00000+0  47411-3 0  9996
2 61568  88.9741  88.3397 0004645 237.6824 122.3921 14.27709741 56265
QIANFAN-36              
1 61569U 24185T   25249.23346461  .00000160  00000+0  21283-3 0  9993
2 61569  88.9726  91.2149 0005400 343.9898  16.1084 13.55550983 54719
QIANFAN-37              
1 62238U 24232B   25249.22703742  .00000078  00000+0  10294-3 0  9996
2 62238  88.9948  51.1706 0002200  77.1386 283.0011 13.50961945 86007
QIANFAN-38              
1 62239U 24232C   25249.25191144  .00000071  00000+0  90617-4 0  9998
2 62239  88.9955  51.0772 0016350 114.5359 245.7499 13.50965866 86062
QIANFAN-39              
1 62240U 24232D   25249.18967973  .00000236  00000+0  93983-4 0  9995
2 62240  88.9956  48.4596 0017572  44.4118 315.8480 14.25240993 87497
QIANFAN-40              
1 62241U 24232E   25249.13669665  .00000035  00000+0  35721-4 0  9991
2 62241  88.9983  50.6459 0015266 121.7601 238.5040 13.50962224 86414
